[{"OBJECT_NAME":"STARLINK-31999","OBJECT_ID":"2024-117L","EPOCH":"2026-03-09T07:17:03.273504","MEAN_MOTION":15.30197018,"ECCENTRICITY":0.00013135,"INCLINATION":53.1615,"RA_OF_ASC_NODE":39.1798,"ARG_OF_PERICENTER":95.3004,"MEAN_ANOMALY":264.8147,"EPHEMERIS_TYPE":0,"CLASSIFICATION_TYPE":"U","NORAD_CAT_ID":60101,"ELEMENT_SET_NO":999,"REV_AT_EPOCH":9682,"BSTAR":4.4260469e-5,"MEAN_MOTION_DOT":9.52e-6,"MEAN_MOTION_DDOT":0},{"OBJECT_NAME":"YAOGAN-43 01D","OBJECT_ID":"2024-148D","EPOCH":"2026-03-09T10:27:16.254720","MEAN_MOTION":15.28369377,"ECCENTRICITY":0.00025569,"INCLINATION":35.001,"RA_OF_ASC_NODE":61.7102,"ARG_OF_PERICENTER":326.2473,"MEAN_ANOMALY":33.808,"EPHEMERIS_TYPE":0,"CLASSIFICATION_TYPE":"U","NORAD_CAT_ID":60461,"ELEMENT_SET_NO":999,"REV_AT_EPOCH":8700,"BSTAR":0.00037765912,"MEAN_MOTION_DOT":0.00010676,"MEAN_MOTION_DDOT":0}]
